GLOBALSTAR M030 [-]     
1 25854U 99037D   17345.90670579 -.00000063  00000-0  26186-3 0  9991
2 25854  51.9843 161.3512 0005328 135.1888 224.9359 11.55052041832918
